[
    {
        "Altitude(m)": 624790.7691013423,
        "Argument of Periapsis(deg)": 0.0,
        "Eccentricity": 0.0,
        "Inclination(deg)": 60.0,
        "Latitude(deg)": -59.14703688703344,
        "Longitude(deg)": 96.03462053632236,
        "Mean Anomaly(deg)": -81.8182,
        "RAAN(deg)": 270.0,
        "Satellite Name": "Test1 1205",
        "Satellite Number": 1205,
        "Semi-Major Axis(m)": 6980739.136638005,
        "Time(s)": 0
    },
    {
        "Altitude(m)": 624737.4240454515,
        "Argument of Periapsis(deg)": 0.00010418945913296404,
        "Eccentricity": 0.0,
        "Inclination(deg)": 60.0,
        "Latitude(deg)": -58.99449187307107,
        "Longitude(deg)": 97.1541199308999,
        "Mean Anomaly(deg)": -81.19809385453816,
        "RAAN(deg)": 269.99957995086027,
        "Satellite Name": "Test1 1205",
        "Satellite Number": 1205,
        "Semi-Major Axis(m)": 6980739.136638005,
        "Time(s)": 10
    }
]